STARLINK-3335           
1 50806U 22001D   26068.54908858  .00001125  00000+0  88792-4 0  9999
2 50806  53.2180 159.7568 0001191  95.4040 264.7088 15.08834941230525
LEMUR-2-SIERRINI        
1 60579U 24149DR  26068.80891719  .00014386  00000+0  92040-3 0  9991
2 60579  97.6873 151.1225 0006580 147.8458 212.3173 15.08682764 85461
